{
    "links": {
        "self": "http://www.neowsapp.com/rest/v1/neo/3404491?api_key=iIulBulltgU6a56xZRHN4H3l9WmuAYTsLGpBGhQ2"
    },
    "id": "3404491",
    "neo_reference_id": "3404491",
    "name": "(2008 DV22)",
    "designation": "2008 DV22",
    "nasa_jpl_url": "http://ssd.jpl.nasa.gov/sbdb.cgi?sstr=3404491",
    "absolute_magnitude_h": 23.4,
    "estimated_diameter": {
        "kilometers": {
            "estimated_diameter_min": 0.0555334912,
            "estimated_diameter_max": 0.1241766613
        },
        "meters": {
            "estimated_diameter_min": 55.5334911581,
            "estimated_diameter_max": 124.1766612574
        },
        "miles": {
            "estimated_diameter_min": 0.0345069009,
            "estimated_diameter_max": 0.0771597762
        },
        "feet": {
            "estimated_diameter_min": 182.1964991311,
            "estimated_diameter_max": 407.4037573197
        }
    },
    "is_potentially_hazardous_asteroid": false,
    "close_approach_data": [
        {
            "close_approach_date": "2008-03-18",
            "close_approach_date_full": "2008-Mar-18 02:27",
            "epoch_date_close_approach": 1205807220000,
            "relative_velocity": {
                "kilometers_per_second": "11.6515547164",
                "kilometers_per_hour": "41945.5969790004",
                "miles_per_hour": "26063.3627450906"
            },
            "miss_distance": {
                "astronomical": "0.0966258917",
                "lunar": "37.5874718713",
                "kilometers": "14455027.585170679",
                "miles": "8981937.6434422102"
            },
            "orbiting_body": "Earth"
        }
    ],
    "orbital_data": {
        "orbit_id": "9",
        "orbit_determination_date": "2017-04-06 09:04:14",
        "first_observation_date": "2008-02-28",
        "last_observation_date": "2008-03-06",
        "data_arc_in_days": 7,
        "observations_used": 18,
        "orbit_uncertainty": "9",
        "minimum_orbit_intersection": ".0959673",
        "jupiter_tisserand_invariant": "3.022",
        "epoch_osculation": "2454526.5",
        "eccentricity": ".6342484891331406",
        "semi_major_axis": "2.696338156194527",
        "inclination": "11.04644108965337",
        "ascending_node_longitude": "153.1478824516309",
        "orbital_period": "1617.185963305216",
        "perihelion_distance": ".9861897544361102",
        "perihelion_argument": "56.17916246947782",
        "aphelion_distance": "4.406486557952944",
        "perihelion_time": "2454569.322225370954",
        "mean_anomaly": "350.4673912071088",
        "mean_motion": ".2226089071811071",
        "equinox": "J2000",
        "orbit_class": {
            "orbit_class_type": "APO",
            "orbit_class_description": "Near-Earth asteroid orbits which cross the Earth’s orbit similar to that of 1862 Apollo",
            "orbit_class_range": "a (semi-major axis) > 1.0 AU; q (perihelion) < 1.017 AU"
        }
    },
    "is_sentry_object": false
}